NORAD_CAT_ID,OBJECT_NAME,OBJECT_TYPE,EPOCH,MEAN_MOTION,ECCENTRICITY,INCLINATION,RA_OF_ASC_NODE,ARG_OF_PERICENTER,MEAN_ANOMALY,BSTAR,MEAN_MOTION_DOT,MEAN_MOTION_DDOT,TLE_LINE0,TLE_LINE1,TLE_LINE2,SEMIMAJOR_AXIS,PERIOD,APOGEE,PERIGEE,DECAYED
55304.0,STARLINK-5318,PAYLOAD,2023-04-21 13:35:38,15.69930429,0.0002692,69.999,170.1519,263.5304,96.5585,9.9008e-06,9.78e-06,0.0,0 STARLINK-5318,1 55304U 23010AM  23111.56641486  .00000978  00000-0  99008-5 0  9996,2 55304  69.9990 170.1519 0002692 263.5304  96.5585 15.69930429 15267,6737.233,91.724,360.912,357.284,0.0
55304.0,STARLINK-5318,PAYLOAD,2023-04-22 04:53:09,15.69934852,0.0003559,69.9974,168.3605,270.711,89.3678,-7.9528e-06,-1.17e-05,0.0,0 STARLINK-5318,1 55304U 23010AM  23112.20358286 -.00001170  00000-0 -79528-5 0  9993,2 55304  69.9974 168.3605 0003559 270.7110  89.3678 15.69934852 15056,6737.22,91.724,361.483,356.688,0.0
55304.0,STARLINK-5318,PAYLOAD,2023-04-22 12:31:54,15.69938855,0.0003364,69.996,167.4632,269.5584,90.5227,4.1516e-06,2.87e-06,0.0,0 STARLINK-5318,1 55304U 23010AM  23112.52215906  .00000287  00000-0  41516-5 0  9991,2 55304  69.9960 167.4632 0003364 269.5584  90.5227 15.69938855 15103,6737.209,91.723,361.34,356.808,0.0
55304.0,STARLINK-5318,PAYLOAD,2023-04-23 12:59:57,15.69924058,0.0003249,69.9959,164.596,266.4506,93.6319,-9.2066e-06,-1.32e-05,0.0,0 STARLINK-5318,1 55304U 23010AM  23113.54163960 -.00001320  00000-0 -92066-5 0  9993,2 55304  69.9959 164.5960 0003249 266.4506  93.6319 15.69924058 15268,6737.251,91.724,361.305,356.927,0.0
55304.0,STARLINK-5318,PAYLOAD,2023-04-24 02:45:42,15.69935337,0.0003568,69.9966,162.9845,274.4243,85.6545,7.1669e-06,6.49e-06,0.0,0 STARLINK-5318,1 55304U 23010AM  23114.11507883  .00000649  00000-0  71669-5 0  9990,2 55304  69.9966 162.9845 0003568 274.4243  85.6545 15.69935337 15669,6737.219,91.724,361.488,356.68,0.0
55304.0,STARLINK-5318,PAYLOAD,2023-04-25 12:24:20,15.69879403,0.00031,69.9983,159.0456,260.0219,100.0627,-3.5761e-05,-4.502e-05,0.0,0 STARLINK-5318,1 55304U 23010AM  23115.51690174 -.00004502  00000-0 -35761-4 0  9997,2 55304  69.9983 159.0456 0003100 260.0219 100.0627 15.69879403 15573,6737.379,91.727,361.333,357.155,0.0
55304.0,STARLINK-5318,PAYLOAD,2023-04-25 13:56:04,15.69898895,0.0002968,69.9984,158.866,256.808,103.2785,-3.2506e-05,-4.115e-05,0.0,0 STARLINK-5318,1 55304U 23010AM  23115.58060715 -.00004115  00000-0 -32506-4 0  9990,2 55304  69.9984 158.8660 0002968 256.8080 103.2785 15.69898895 15899,6737.323,91.726,361.188,357.189,0.0
55304.0,STARLINK-5318,PAYLOAD,2023-04-26 12:52:17,15.69945923,0.0003132,69.9988,156.1767,263.0834,97.0005,6.4382e-05,7.542e-05,0.0,0 STARLINK-5318,1 55304U 23010AM  23116.53631338  .00007542  00000-0  64382-4 0  9993,2 55304  69.9988 156.1767 0003132 263.0834  97.0005 15.69945923 16041,6737.189,91.723,361.164,356.944,0.0
55304.0,STARLINK-5318,PAYLOAD,2023-04-27 04:09:48,15.69938182,0.0002937,69.9984,154.3873,260.0825,100.0039,7.9657e-05,9.381e-05,0.0,0 STARLINK-5318,1 55304U 23010AM  23117.17347340  .00009381  00000-0  79657-4 0  9995,2 55304  69.9984 154.3873 0002937 260.0825 100.0039 15.69938182 15831,6737.211,91.723,361.055,357.097,0.0
55304.0,STARLINK-5318,PAYLOAD,2023-04-27 10:16:51,15.69895079,0.0002599,69.9984,153.671,249.2877,110.804,4.0657e-05,4.673e-05,0.0,0 STARLINK-5318,1 55304U 23010AM  23117.42837429  .00004673  00000-0  40657-4 0  9992,2 55304  69.9984 153.6710 0002599 249.2877 110.8040 15.69895079 16180,6737.334,91.726,360.95,357.448,0.0
55304.0,STARLINK-5318,PAYLOAD,2023-04-28 04:37:52,15.69931724,0.0002753,69.9973,151.5203,246.7315,113.3591,-3.3667e-05,-4.259e-05,0.0,0 STARLINK-5318,1 55304U 23010AM  23118.19297298 -.00004259  00000-0 -33667-4 0  9996,2 55304  69.9973 151.5203 0002753 246.7315 113.3591 15.69931724 15998,6737.229,91.724,360.949,357.24,0.0
55304.0,STARLINK-5318,PAYLOAD,2023-04-28 10:44:52,15.69934908,0.0002625,69.9972,150.803,250.638,109.4532,-3.0533e-05,-3.883e-05,0.0,0 STARLINK-5318,1 55304U 23010AM  23118.44783330 -.00003883  00000-0 -30533-4 0  9992,2 55304  69.9972 150.8030 0002625 250.6380 109.4532 15.69934908 16349,6737.22,91.724,360.854,357.317,0.0
55304.0,STARLINK-5318,PAYLOAD,2023-04-28 12:16:34,15.70014762,0.0002914,69.9978,150.6251,273.6067,86.4795,-2.8207e-05,-3.615e-05,0.0,0 STARLINK-5318,1 55304U 23010AM  23118.51150679 -.00003615  00000-0 -28207-4 0  9992,2 55304  69.9978 150.6251 0002914 273.6067  86.4795 15.70014762 16047,6736.992,91.719,360.82,356.894,0.0
55304.0,STARLINK-5318,PAYLOAD,2023-04-29 05:04:18,15.7124512,0.0008599,69.9986,148.6504,223.4755,136.5765,0.0014978,0.00194818,0.0,0 STARLINK-5318,1 55304U 23010AM  23119.21132500  .00194818  00000-0  14978-2 0  9995,2 55304  69.9986 148.6504 0008599 223.4755 136.5765 15.71245120 16157,6733.474,91.647,361.13,349.549,0.0
55304.0,STARLINK-5318,PAYLOAD,2023-04-29 22:00:00,15.69879817,0.0003538,69.9997,146.6743,268.7314,110.3802,0.00076252,0.00092322,0.0,0 STARLINK-5318,1 55304U 23010AM  23119.91667824  .00092322  00000-0  76252-3 0  9995,2 55304  69.9997 146.6743 0003538 268.7314 110.3802 15.69879817 16260,6737.378,91.727,361.627,356.859,0.0
55304.0,STARLINK-5318,PAYLOAD,2023-04-30 11:40:56,15.6992163,0.0003429,69.9964,145.0701,267.8153,92.265,1.0858e-05,1.093e-05,0.0,0 STARLINK-5318,1 55304U 23010AM  23120.48676152  .00001093  00000-0  10858-4 0  9999,2 55304  69.9964 145.0701 0003429 267.8153  92.2650 15.69921630 16665,6737.258,91.724,361.433,356.813,0.0
55304.0,STARLINK-5318,PAYLOAD,2023-04-30 13:12:41,15.69921874,0.0003377,69.9964,144.8922,263.4349,96.6463,7.2129e-06,6.54e-06,0.0,0 STARLINK-5318,1 55304U 23010AM  23120.55047870  .00000654  00000-0  72129-5 0  9998,2 55304  69.9964 144.8922 0003377 263.4349  96.6463 15.69921874 16365,6737.258,91.724,361.398,356.847,0.0
55304.0,STARLINK-5318,PAYLOAD,2023-05-01 04:30:13,15.69900386,0.0002989,69.9966,143.101,265.323,94.7624,4.6893e-05,5.424e-05,0.0,0 STARLINK-5318,1 55304U 23010AM  23121.18765145  .00005424  00000-0  46893-4 0  9998,2 55304  69.9966 143.1010 0002989 265.3230  94.7624 15.69900386 16469,6737.319,91.726,361.198,357.17,0.0
55304.0,STARLINK-5318,PAYLOAD,2023-05-01 19:47:48,15.6985951,0.000302,69.9975,141.3102,274.9264,85.1587,-3.7184e-05,-4.669e-05,0.0,0 STARLINK-5318,1 55304U 23010AM  23121.82486691 -.00004669  00000-0 -37184-4 0  9990,2 55304  69.9975 141.3102 0003020 274.9264  85.1587 15.69859510 16870,6737.436,91.728,361.336,357.266,0.0
55304.0,STARLINK-5318,PAYLOAD,2023-05-02 00:22:59,15.69925756,0.0003441,69.9966,140.7721,272.8051,87.2751,8.2163e-06,7.75e-06,0.0,0 STARLINK-5318,1 55304U 23010AM  23122.01596320  .00000775  00000-0  82163-5 0  9993,2 55304  69.9966 140.7721 0003441 272.8051  87.2751 15.69925756 16599,6737.246,91.724,361.43,356.793,0.0
55304.0,STARLINK-5318,PAYLOAD,2023-05-02 12:37:01,15.69910583,0.0003204,69.9969,139.3386,274.9637,85.1193,-9.6363e-06,-1.37e-05,0.0,0 STARLINK-5318,1 55304U 23010AM  23122.52570976 -.00001370  00000-0 -96363-5 0  9999,2 55304  69.9969 139.3386 0003204 274.9637  85.1193 15.69910583 16671,6737.29,91.725,361.313,356.996,0.0
55304.0,STARLINK-5318,PAYLOAD,2023-05-03 03:54:32,15.69918584,0.0003614,69.9966,137.5472,268.7855,91.2926,-8.834e-07,-3.19e-06,0.0,0 STARLINK-5318,1 55304U 23010AM  23123.16287106 -.00000319  00000-0 -88340-6 0  9999,2 55304  69.9966 137.5472 0003614 268.7855  91.2926 15.69918584 16774,6737.267,91.725,361.567,356.697,0.0
55304.0,STARLINK-5318,PAYLOAD,2023-05-03 11:33:17,15.69922734,0.000291,69.9978,136.6524,257.8667,102.2203,1.1319e-05,1.148e-05,0.0,0 STARLINK-5318,1 55304U 23010AM  23123.48145070  .00001148  00000-0  11319-4 0  9996,2 55304  69.9978 136.6524 0002910 257.8667 102.2203 15.69922734 17137,6737.255,91.724,361.081,357.16,0.0
55304.0,STARLINK-5318,PAYLOAD,2023-05-04 01:19:03,15.69927572,0.0003276,69.9979,135.0397,267.7857,92.2963,1.099e-05,1.109e-05,0.0,0 STARLINK-5318,1 55304U 23010AM  23124.05489735  .00001109  00000-0  10990-4 0  9990,2 55304  69.9979 135.0397 0003276 267.7857  92.2963 15.69927572 16917,6737.241,91.724,361.313,356.899,0.0
55304.0,STARLINK-5318,PAYLOAD,2023-05-04 10:29:28,15.69959188,0.0002439,69.9999,133.9662,267.8846,92.2071,3.511e-05,4.017e-05,0.0,0 STARLINK-5318,1 55304U 23010AM  23124.43713832  .00004017  00000-0  35110-4 0  9992,2 55304  69.9999 133.9662 0002439 267.8846  92.2071 15.69959188 16974,6737.151,91.722,360.659,357.373,0.0
55304.0,STARLINK-5318,PAYLOAD,2023-05-05 03:19:00,15.6979274,0.0002551,70.0009,131.9977,262.3487,97.7419,-3.5536e-05,-4.459e-05,0.0,0 STARLINK-5318,1 55304U 23010AM  23125.13820286 -.00004459  00000-0 -35536-4 0  9996,2 55304  70.0009 131.9977 0002551 262.3487  97.7419 15.69792740 17080,6737.627,91.732,361.211,357.773,0.0
55304.0,STARLINK-5318,PAYLOAD,2023-05-06 00:43:21,15.69933933,0.000325,69.9984,129.4857,268.3518,91.7306,1.252e-05,1.293e-05,0.0,0 STARLINK-5318,1 55304U 23010AM  23126.03011073  .00001293  00000-0  12520-4 0  9991,2 55304  69.9984 129.4857 0003250 268.3518  91.7306 15.69933933 17222,6737.223,91.724,361.278,356.898,0.0
55304.0,STARLINK-5318,PAYLOAD,2023-05-06 06:50:21,15.69960947,0.0002861,69.9982,128.7686,262.4164,97.6707,-5.8985e-05,-7.309e-05,0.0,0 STARLINK-5318,1 55304U 23010AM  23126.28497347 -.00007309  00000-0 -58985-4 0  9991,2 55304  69.9982 128.7686 0002861 262.4164  97.6707 15.69960947 17260,6737.146,91.722,360.938,357.083,0.0
55304.0,STARLINK-5318,PAYLOAD,2023-05-06 11:24:59,15.70428801,0.0006863,69.9992,128.2322,254.8731,105.1706,0.00055245,0.00068236,0.0,0 STARLINK-5318,1 55304U 23010AM  23126.47569128  .00068236  00000-0  55245-3 0  9998,2 55304  69.9992 128.2322 0006863 254.8731 105.1706 15.70428801 17606,6735.808,91.695,362.295,353.05,0.0
55304.0,STARLINK-5318,PAYLOAD,2023-05-07 06:00:00,15.69368194,0.0003588,69.9998,126.0559,269.7704,142.4639,-0.0081498,-0.00864671,0.0,0 STARLINK-5318,1 55304U 23010AM  23127.25001157 -.00864671  00000-0 -81498-2 0  9995,2 55304  69.9998 126.0559 0003588 269.7704 142.4639 15.69368194 17410,6738.842,91.757,363.125,358.289,0.0
